1 08820U 76039A   03180.48343739  .00000015  00000-0  10000-3 0  9299
2 08820 109.8030 185.8081 0044594 298.8815  60.7391  6.38664441377846
